start=new Date('2021-12-20T00:00:00.000Z').valueOf();
sats=[{"CLASSIFICATION_TYPE":"U","PERIAPSIS":"357.458","SEMIMAJOR_AXIS":"6737.755","EPOCH":"2021-12-19T22:00:00.999936","MEAN_MOTION_DDOT":"0.0000000000000","EPHEMERIS_TYPE":"0","REV_AT_EPOCH":"1529","OBJECT_ID":"2021-082AU","ECCENTRICITY":"0.00032090","TIME_SYSTEM":"UTC","ARG_OF_PERICENTER":"271.4196","RCS_SIZE":"LARGE","REF_FRAME":"TEME","NORAD_CAT_ID":"49172","OBJECT_TYPE":"PAYLOAD","APOAPSIS":"361.782","MEAN_ANOMALY":"136.9441","LAUNCH_DATE":"2021-09-14","INCLINATION":"69.9987","MEAN_ELEMENT_THEORY":"SGP4","GP_ID":"192017304","CENTER_NAME":"EARTH","OBJECT_NAME":"STARLINK-3091","PERIOD":"91.734","MEAN_MOTION_DOT":"0.00015790","DECAY_DATE":null,"ELEMENT_SET_NO":"999","MEAN_MOTION":"15.69747994","RA_OF_ASC_NODE":"214.7154","FILE":"3244729","COUNTRY_CODE":"US","BSTAR":"0.00013381000000","SITE":"AFWTR","TLE_LINE1":"1 49172U 21082AU  21353.91667824  .00015790  00000-0  13381-3 0  9994","TLE_LINE2":"2 49172  69.9987 214.7154 0003209 271.4196 136.9441 15.69747994 15297"},{"MEAN_MOTION_DDOT":"0.0000000000000","EPOCH":"2021-12-19T22:00:00.999936","SEMIMAJOR_AXIS":"6737.775","PERIAPSIS":"357.242","CLASSIFICATION_TYPE":"U","RCS_SIZE":"LARGE","ECCENTRICITY":"0.00035600","TIME_SYSTEM":"UTC","OBJECT_ID":"2021-082AV","ARG_OF_PERICENTER":"263.0844","REV_AT_EPOCH":"369","EPHEMERIS_TYPE":"0","APOAPSIS":"362.039","OBJECT_TYPE":"PAYLOAD","NORAD_CAT_ID":"49173","REF_FRAME":"TEME","INCLINATION":"69.9981","LAUNCH_DATE":"2021-09-14","MEAN_ELEMENT_THEORY":"SGP4","MEAN_ANOMALY":"51.7147","DECAY_DATE":null,"MEAN_MOTION_DOT":"0.00033539","PERIOD":"91.735","OBJECT_NAME":"STARLINK-3045","CENTER_NAME":"EARTH","GP_ID":"192043382","FILE":"3244825","RA_OF_ASC_NODE":"214.4060","MEAN_MOTION":"15.69740851","ELEMENT_SET_NO":"999","SITE":"AFWTR","BSTAR":"0.00028169000000","COUNTRY_CODE":"US","TLE_LINE2":"2 49173  69.9981 214.4060 0003560 263.0844  51.7147 15.69740851  3695","TLE_LINE1":"1 49173U 21082AV  21353.91667824  .00033539  00000-0  28169-3 0  9996"},{"APOAPSIS":"361.884","OBJECT_TYPE":"PAYLOAD","NORAD_CAT_ID":"49174","REF_FRAME":"TEME","LAUNCH_DATE":"2021-09-14","INCLINATION":"69.9973","MEAN_ELEMENT_THEORY":"SGP4","MEAN_ANOMALY":"132.3176","MEAN_MOTION_DDOT":"0.0000000000000","EPOCH":"2021-12-19T22:00:00.999936","SEMIMAJOR_AXIS":"6737.696","PERIAPSIS":"357.237","CLASSIFICATION_TYPE":"U","RCS_SIZE":"LARGE","TIME_SYSTEM":"UTC","ECCENTRICITY":"0.00034490","ARG_OF_PERICENTER":"271.8274","OBJECT_ID":"2021-082AW","REV_AT_EPOCH":"1646","EPHEMERIS_TYPE":"0","SITE":"AFWTR","COUNTRY_CODE":"US","BSTAR":"-0.00069454000000","TLE_LINE2":"2 49174  69.9973 214.7262 0003449 271.8274 132.3176 15.69768742 16460","TLE_LINE1":"1 49174U 21082AW  21353.91667824 -.00082383  00000-0 -69454-3 0  9992","DECAY_DATE":null,"MEAN_MOTION_DOT":"-0.00082383","PERIOD":"91.733","OBJECT_NAME":"STARLINK-3047","GP_ID":"192017345","CENTER_NAME":"EARTH","FILE":"3244753","RA_OF_ASC_NODE":"214.7262","MEAN_MOTION":"15.69768742","ELEMENT_SET_NO":"999"},{"REF_FRAME":"TEME","NORAD_CAT_ID":"49175","OBJECT_TYPE":"PAYLOAD","APOAPSIS":"361.915","MEAN_ANOMALY":"139.5031","LAUNCH_DATE":"2021-09-14","MEAN_ELEMENT_THEORY":"SGP4","INCLINATION":"69.9970","PERIAPSIS":"357.256","CLASSIFICATION_TYPE":"U","SEMIMAJOR_AXIS":"6737.721","EPOCH":"2021-12-19T22:00:00.999936","MEAN_MOTION_DDOT":"0.0000000000000","EPHEMERIS_TYPE":"0","REV_AT_EPOCH":"1529","TIME_SYSTEM":"UTC","ECCENTRICITY":"0.00034570","OBJECT_ID":"2021-082AX","ARG_OF_PERICENTER":"271.0046","RCS_SIZE":"LARGE","BSTAR":"-0.00051652000000","COUNTRY_CODE":"US","SITE":"AFWTR","TLE_LINE1":"1 49175U 21082AX  21353.91667824 -.00061452  00000-0 -51652-3 0  9998","TLE_LINE2":"2 49175  69.9970 214.7166 0003457 271.0046 139.5031 15.69760058 15290","GP_ID":"192016849","CENTER_NAME":"EARTH","OBJECT_NAME":"STARLINK-3087","PERIOD":"91.734","DECAY_DATE":null,"MEAN_MOTION_DOT":"-0.00061452","ELEMENT_SET_NO":"999","MEAN_MOTION":"15.69760058","RA_OF_ASC_NODE":"214.7166","FILE":"3244753"},{"EPHEMERIS_TYPE":"0","REV_AT_EPOCH":"1529","ECCENTRICITY":"0.00033230","OBJECT_ID":"2021-082AY","ARG_OF_PERICENTER":"269.8612","TIME_SYSTEM":"UTC","RCS_SIZE":"LARGE","PERIAPSIS":"357.456","CLASSIFICATION_TYPE":"U","SEMIMAJOR_AXIS":"6737.830","EPOCH":"2021-12-19T22:00:00.999936","MEAN_MOTION_DDOT":"0.0000000000000","MEAN_ANOMALY":"149.1894","LAUNCH_DATE":"2021-09-14","INCLINATION":"69.9982","MEAN_ELEMENT_THEORY":"SGP4","NORAD_CAT_ID":"49176","REF_FRAME":"TEME","APOAPSIS":"361.934","OBJECT_TYPE":"PAYLOAD","ELEMENT_SET_NO":"999","MEAN_MOTION":"15.69721891","FILE":"3244815","RA_OF_ASC_NODE":"214.7022","GP_ID":"192018953","CENTER_NAME":"EARTH","PERIOD":"91.736","OBJECT_NAME":"STARLINK-3069","DECAY_DATE":null,"MEAN_MOTION_DOT":"-0.00017244","TLE_LINE1":"1 49176U 21082AY  21353.91667824 -.00017244  00000-0 -14313-3 0  9992","TLE_LINE2":"2 49176  69.9982 214.7022 0003323 269.8612 149.1894 15.69721891 15297","COUNTRY_CODE":"US","BSTAR":"-0.00014313000000","SITE":"AFWTR"},{"REV_AT_EPOCH":"1649","EPHEMERIS_TYPE":"0","RCS_SIZE":"LARGE","OBJECT_ID":"2021-082AZ","ECCENTRICITY":"0.00031710","TIME_SYSTEM":"UTC","ARG_OF_PERICENTER":"273.7129","SEMIMAJOR_AXIS":"6737.740","PERIAPSIS":"357.468","CLASSIFICATION_TYPE":"U","MEAN_MOTION_DDOT":"0.0000000000000","EPOCH":"2021-12-19T22:00:00.999936","MEAN_ANOMALY":"138.9482","MEAN_ELEMENT_THEORY":"SGP4","LAUNCH_DATE":"2021-09-14","INCLINATION":"69.9976","NORAD_CAT_ID":"49177","REF_FRAME":"TEME","APOAPSIS":"361.741","OBJECT_TYPE":"PAYLOAD","MEAN_MOTION":"15.69753356","ELEMENT_SET_NO":"999","FILE":"3244815","RA_OF_ASC_NODE":"214.7085","PERIOD":"91.734","OBJECT_NAME":"STARLINK-3103","GP_ID":"192019019","CENTER_NAME":"EARTH","DECAY_DATE":null,"MEAN_MOTION_DOT":"-0.00019656","TLE_LINE1":"1 49177U 21082AZ  21353.91667824 -.00019656  00000-0 -16324-3 0  9996","TLE_LINE2":"2 49177  69.9976 214.7085 0003171 273.7129 138.9482 15.69753356 16491","BSTAR":"-0.00016324000000","COUNTRY_CODE":"US","SITE":"AFWTR"},{"RCS_SIZE":"LARGE","TIME_SYSTEM":"UTC","OBJECT_ID":"2021-082BA","ECCENTRICITY":"0.00029890","ARG_OF_PERICENTER":"276.9711","REV_AT_EPOCH":"1633","EPHEMERIS_TYPE":"0","MEAN_MOTION_DDOT":"0.0000000000000","EPOCH":"2021-12-19T21:56:55.798944","SEMIMAJOR_AXIS":"6905.902","CLASSIFICATION_TYPE":"U","PERIAPSIS":"525.703","INCLINATION":"69.9947","LAUNCH_DATE":"2021-09-14","MEAN_ELEMENT_THEORY":"SGP4","MEAN_ANOMALY":"83.1116","OBJECT_TYPE":"PAYLOAD","APOAPSIS":"529.831","REF_FRAME":"TEME","NORAD_CAT_ID":"49178","RA_OF_ASC_NODE":"219.6198","FILE":"3244825","MEAN_MOTION":"15.12767313","ELEMENT_SET_NO":"999","DECAY_DATE":null,"MEAN_MOTION_DOT":"-0.00186452","OBJECT_NAME":"STARLINK-3086","PERIOD":"95.190","CENTER_NAME":"EARTH","GP_ID":"192041966","TLE_LINE2":"2 49178  69.9947 219.6198 0002989 276.9711  83.1116 15.12767313 16331","TLE_LINE1":"1 49178U 21082BA  21353.91453471 -.00186452  00000-0 -10876-1 0  9991","SITE":"AFWTR","BSTAR":"-0.01087600000000","COUNTRY_CODE":"US"},{"SEMIMAJOR_AXIS":"6737.670","CLASSIFICATION_TYPE":"U","PERIAPSIS":"357.073","MEAN_MOTION_DDOT":"0.0000000000000","EPOCH":"2021-12-19T22:00:00.999936","REV_AT_EPOCH":"1529","EPHEMERIS_TYPE":"0","RCS_SIZE":"LARGE","ECCENTRICITY":"0.00036540","OBJECT_ID":"2021-082BB","TIME_SYSTEM":"UTC","ARG_OF_PERICENTER":"269.8672","NORAD_CAT_ID":"49179","REF_FRAME":"TEME","APOAPSIS":"361.997","OBJECT_TYPE":"PAYLOAD","MEAN_ANOMALY":"144.8869","INCLINATION":"69.9971","LAUNCH_DATE":"2021-09-14","MEAN_ELEMENT_THEORY":"SGP4","PERIOD":"91.733","OBJECT_NAME":"STARLINK-3043","CENTER_NAME":"EARTH","GP_ID":"192019025","MEAN_MOTION_DOT":"-0.00083375","DECAY_DATE":null,"MEAN_MOTION":"15.69777698","ELEMENT_SET_NO":"999","FILE":"3244815","RA_OF_ASC_NODE":"214.7133","COUNTRY_CODE":"US","BSTAR":"-0.00070271000000","SITE":"AFWTR","TLE_LINE1":"1 49179U 21082BB  21353.91667824 -.00083375  00000-0 -70271-3 0  9998","TLE_LINE2":"2 49179  69.9971 214.7133 0003654 269.8672 144.8869 15.69777698 15294"},{"OBJECT_TYPE":"PAYLOAD","APOAPSIS":"362.129","REF_FRAME":"TEME","NORAD_CAT_ID":"49180","MEAN_ELEMENT_THEORY":"SGP4","LAUNCH_DATE":"2021-09-14","INCLINATION":"69.9977","MEAN_ANOMALY":"149.9808","EPOCH":"2021-12-19T22:00:00.999936","MEAN_MOTION_DDOT":"0.0000000000000","PERIAPSIS":"357.144","CLASSIFICATION_TYPE":"U","SEMIMAJOR_AXIS":"6737.772","ECCENTRICITY":"0.00036990","TIME_SYSTEM":"UTC","OBJECT_ID":"2021-082BC","ARG_OF_PERICENTER":"271.1786","RCS_SIZE":"LARGE","EPHEMERIS_TYPE":"0","REV_AT_EPOCH":"1646","SITE":"AFWTR","COUNTRY_CODE":"US","BSTAR":"0.00011313000000","TLE_LINE2":"2 49180  69.9977 214.6989 0003699 271.1786 149.9808 15.69742138 16461","TLE_LINE1":"1 49180U 21082BC  21353.91667824  .00013311  00000-0  11313-3 0  9993","MEAN_MOTION_DOT":"0.00013311","DECAY_DATE":null,"GP_ID":"192018958","CENTER_NAME":"EARTH","OBJECT_NAME":"STARLINK-3050","PERIOD":"91.735","RA_OF_ASC_NODE":"214.6989","FILE":"3244815","ELEMENT_SET_NO":"999","MEAN_MOTION":"15.69742138"},{"EPHEMERIS_TYPE":"0","REV_AT_EPOCH":"364","OBJECT_ID":"2021-082BD","TIME_SYSTEM":"UTC","ARG_OF_PERICENTER":"278.2947","ECCENTRICITY":"0.00032210","RCS_SIZE":"LARGE","PERIAPSIS":"527.472","CLASSIFICATION_TYPE":"U","SEMIMAJOR_AXIS":"6907.832","EPOCH":"2021-12-19T22:00:00.999936","MEAN_MOTION_DDOT":"0.0000000000000","MEAN_ANOMALY":"207.2786","INCLINATION":"70.0001","LAUNCH_DATE":"2021-09-14","MEAN_ELEMENT_THEORY":"SGP4","REF_FRAME":"TEME","NORAD_CAT_ID":"49181","OBJECT_TYPE":"PAYLOAD","APOAPSIS":"531.922","ELEMENT_SET_NO":"999","MEAN_MOTION":"15.12133409","RA_OF_ASC_NODE":"219.5702","FILE":"3244825","CENTER_NAME":"EARTH","GP_ID":"192043383","OBJECT_NAME":"STARLINK-3059","PERIOD":"95.230","DECAY_DATE":null,"MEAN_MOTION_DOT":"-0.00665090","TLE_LINE1":"1 49181U 21082BD  21353.91667824 -.00665090  00000-0 -41125-1 0  9995","TLE_LINE2":"2 49181  70.0001 219.5702 0003221 278.2947 207.2786 15.12133409  3640","BSTAR":"-0.04112500000000","COUNTRY_CODE":"US","SITE":"AFWTR"}];
